0 FENGYUN 1C DEB
1 29815U 99025DH  13282.77752840  .00001441  00000-0  31104-3 0  8504
2 29815 098.5243 311.2570 0241561 092.7758 328.6359 14.43345150354226
0 FENGYUN 1C DEB
1 29815U 99025DH  13283.81641017  .00001664  00000-0  35725-3 0  8514
2 29815 098.5240 312.2979 0241536 089.6597 326.6889 14.43349921354377
0 FENGYUN 1C DEB
1 29815U 99025DH  13285.82612821  .00002039  00000-0  43523-3 0  8521
2 29815 098.5243 314.3110 0241536 083.6137 329.3056 14.43353635354669
0 FENGYUN 1C DEB
1 29815U 99025DH  13287.07475258  .00002429  00000-0  51631-3 0  8534
2 29815 098.5239 315.5620 0241465 079.8636 337.2500 14.43356485354843
0 FENGYUN 1C DEB
1 29815U 99025DH  13288.80761388  .00002790  00000-0  59112-3 0  8542
2 29815 098.5232 317.2982 0241399 074.6680 341.3570 14.43369343355092
0 FENGYUN 1C DEB
1 29815U 99025DH  13289.98798788  .00002994  00000-0  63363-3 0  8556
2 29815 098.5228 318.4807 0241371 071.1288 354.7283 14.43373898355260
0 FENGYUN 1C DEB
1 29815U 99025DH  13291.38542779  .00002725  00000-0  57786-3 0  8565
2 29815 098.5226 319.8804 0241234 066.9337 056.0369 14.43381256355461
0 FENGYUN 1C DEB
1 29815U 99025DH  13292.82772448  .00002801  00000-0  59384-3 0  8575
2 29815 098.5224 321.3249 0241159 062.6007 350.4678 14.43387364355676
0 FENGYUN 1C DEB
1 29815U 99025DH  13294.06988037  .00003049  00000-0  64537-3 0  8588
2 29815 098.5223 322.5689 0241096 058.8695 324.9560 14.43392011355857
0 FENGYUN 1C DEB
1 29815U 99025DH  13295.61300770  .00003126  00000-0  66138-3 0  8598
2 29815 098.5225 324.1145 0241005 054.2377 063.3795 14.43400051356074
